start=new Date('2023-05-10T00:00:00.000Z').valueOf();
sats=[{"GP_ID":"231503373","TLE_LINE1":"1 45045U 20006B   23129.56139566  .00031740  00000-0  21381-2 0  9996","OBJECT_NAME":"STARLINK-1120","LAUNCH_DATE":"2020-01-29","EPOCH":"2023-05-09T13:28:24.585024","PERIOD":"95.590","MEAN_MOTION_DDOT":"0.0000000000000","APOAPSIS":"547.946","SITE":"AFETR","DECAY_DATE":null,"REV_AT_EPOCH":"18044","ARG_OF_PERICENTER":"75.3447","RA_OF_ASC_NODE":"253.4784","COUNTRY_CODE":"US","NORAD_CAT_ID":"45045","REF_FRAME":"TEME","MEAN_MOTION":"15.06436149","SEMIMAJOR_AXIS":"6925.238","MEAN_MOTION_DOT":"0.00031740","MEAN_ANOMALY":"284.7676","RCS_SIZE":"LARGE","BSTAR":"0.00213810000000","TIME_SYSTEM":"UTC","MEAN_ELEMENT_THEORY":"SGP4","CENTER_NAME":"EARTH","FILE":"3904553","ECCENTRICITY":"0.00012170","OBJECT_ID":"2020-006B","EPHEMERIS_TYPE":"0","ELEMENT_SET_NO":"999","INCLINATION":"53.0538","CLASSIFICATION_TYPE":"U","TLE_LINE2":"2 45045  53.0538 253.4784 0001217  75.3447 284.7676 15.06436149180444","PERIAPSIS":"546.260","OBJECT_TYPE":"PAYLOAD"},{"RCS_SIZE":"LARGE","CENTER_NAME":"EARTH","MEAN_ELEMENT_THEORY":"SGP4","BSTAR":"0.00217710000000","TIME_SYSTEM":"UTC","MEAN_MOTION_DOT":"0.00032326","SEMIMAJOR_AXIS":"6925.243","MEAN_ANOMALY":"290.6446","PERIAPSIS":"546.335","TLE_LINE2":"2 45047  53.0541 253.4705 0001116  69.4663 290.6446 15.06434564180445","CLASSIFICATION_TYPE":"U","INCLINATION":"53.0541","ELEMENT_SET_NO":"999","OBJECT_TYPE":"PAYLOAD","FILE":"3904553","OBJECT_ID":"2020-006D","ECCENTRICITY":"0.00011160","EPHEMERIS_TYPE":"0","LAUNCH_DATE":"2020-01-29","PERIOD":"95.590","EPOCH":"2023-05-09T13:35:04.643808","GP_ID":"231503125","TLE_LINE1":"1 45047U 20006D   23129.56602597  .00032326  00000-0  21771-2 0  9991","OBJECT_NAME":"STARLINK-1131","NORAD_CAT_ID":"45047","RA_OF_ASC_NODE":"253.4705","COUNTRY_CODE":"US","MEAN_MOTION":"15.06434564","REF_FRAME":"TEME","MEAN_MOTION_DDOT":"0.0000000000000","APOAPSIS":"547.880","ARG_OF_PERICENTER":"69.4663","REV_AT_EPOCH":"18044","DECAY_DATE":null,"SITE":"AFETR"},{"BSTAR":"0.00199920000000","TIME_SYSTEM":"UTC","MEAN_ELEMENT_THEORY":"SGP4","CENTER_NAME":"EARTH","RCS_SIZE":"LARGE","MEAN_ANOMALY":"275.8057","SEMIMAJOR_AXIS":"6925.263","MEAN_MOTION_DOT":"0.00029645","OBJECT_TYPE":"PAYLOAD","ELEMENT_SET_NO":"999","CLASSIFICATION_TYPE":"U","INCLINATION":"53.0543","TLE_LINE2":"2 45048  53.0543 253.7345 0001262  84.3076 275.8057 15.06428049180430","PERIAPSIS":"546.254","EPHEMERIS_TYPE":"0","FILE":"3904553","ECCENTRICITY":"0.00012620","OBJECT_ID":"2020-006E","EPOCH":"2023-05-09T12:10:09.434496","PERIOD":"95.590","LAUNCH_DATE":"2020-01-29","OBJECT_NAME":"STARLINK-1134","TLE_LINE1":"1 45048U 20006E   23129.50705364  .00029645  00000-0  19992-2 0  9994","GP_ID":"231504375","REF_FRAME":"TEME","MEAN_MOTION":"15.06428049","COUNTRY_CODE":"US","RA_OF_ASC_NODE":"253.7345","NORAD_CAT_ID":"45048","SITE":"AFETR","DECAY_DATE":null,"REV_AT_EPOCH":"18043","ARG_OF_PERICENTER":"84.3076","APOAPSIS":"548.002","MEAN_MOTION_DDOT":"0.0000000000000"},{"OBJECT_ID":"2020-006F","FILE":"3904553","ECCENTRICITY":"0.00034880","EPHEMERIS_TYPE":"0","ELEMENT_SET_NO":"999","CLASSIFICATION_TYPE":"U","INCLINATION":"53.0688","TLE_LINE2":"2 45049  53.0688 232.5441 0003488 155.1490 204.9675 15.22150258180747","PERIAPSIS":"496.959","OBJECT_TYPE":"PAYLOAD","SEMIMAJOR_AXIS":"6877.493","MEAN_MOTION_DOT":"0.00000976","MEAN_ANOMALY":"204.9675","RCS_SIZE":"LARGE","TIME_SYSTEM":"UTC","BSTAR":"0.00005626900000","MEAN_ELEMENT_THEORY":"SGP4","CENTER_NAME":"EARTH","APOAPSIS":"501.757","MEAN_MOTION_DDOT":"0.0000000000000","SITE":"AFETR","DECAY_DATE":null,"REV_AT_EPOCH":"18074","ARG_OF_PERICENTER":"155.1490","RA_OF_ASC_NODE":"232.5441","COUNTRY_CODE":"US","NORAD_CAT_ID":"45049","REF_FRAME":"TEME","MEAN_MOTION":"15.22150258","GP_ID":"231504112","TLE_LINE1":"1 45049U 20006F   23129.56932757  .00000976  00000-0  56269-4 0  9995","OBJECT_NAME":"STARLINK-1135","LAUNCH_DATE":"2020-01-29","EPOCH":"2023-05-09T13:39:49.902048","PERIOD":"94.603"},{"LAUNCH_DATE":"2020-01-29","PERIOD":"95.589","EPOCH":"2023-05-09T14:01:37.512480","TLE_LINE1":"1 45050U 20006G   23129.58446195  .00027900  00000-0  18820-2 0  9990","GP_ID":"231502874","OBJECT_NAME":"STARLINK-1140","COUNTRY_CODE":"US","RA_OF_ASC_NODE":"253.3838","NORAD_CAT_ID":"45050","MEAN_MOTION":"15.06450136","REF_FRAME":"TEME","APOAPSIS":"548.082","MEAN_MOTION_DDOT":"0.0000000000000","REV_AT_EPOCH":"18044","DECAY_DATE":null,"SITE":"AFETR","ARG_OF_PERICENTER":"95.7635","RCS_SIZE":"LARGE","MEAN_ELEMENT_THEORY":"SGP4","BSTAR":"0.00188200000000","TIME_SYSTEM":"UTC","CENTER_NAME":"EARTH","SEMIMAJOR_AXIS":"6925.195","MEAN_MOTION_DOT":"0.00027900","MEAN_ANOMALY":"264.3522","CLASSIFICATION_TYPE":"U","INCLINATION":"53.0542","ELEMENT_SET_NO":"999","PERIAPSIS":"546.038","TLE_LINE2":"2 45050  53.0542 253.3838 0001476  95.7635 264.3522 15.06450136180442","OBJECT_TYPE":"PAYLOAD","ECCENTRICITY":"0.00014760","FILE":"3904553","OBJECT_ID":"2020-006G","EPHEMERIS_TYPE":"0"},{"RCS_SIZE":"LARGE","CENTER_NAME":"EARTH","TIME_SYSTEM":"UTC","BSTAR":"0.00484650000000","MEAN_ELEMENT_THEORY":"SGP4","MEAN_MOTION_DOT":"0.00515875","SEMIMAJOR_AXIS":"6751.746","MEAN_ANOMALY":"11.5099","TLE_LINE2":"2 45051  53.0464 207.9426 0016066 348.5548  11.5099 15.64871276181085","PERIAPSIS":"362.764","ELEMENT_SET_NO":"999","CLASSIFICATION_TYPE":"U","INCLINATION":"53.0464","OBJECT_TYPE":"PAYLOAD","FILE":"3904553","ECCENTRICITY":"0.00160660","OBJECT_ID":"2020-006H","EPHEMERIS_TYPE":"0","LAUNCH_DATE":"2020-01-29","EPOCH":"2023-05-09T12:10:07.387680","PERIOD":"92.020","TLE_LINE1":"1 45051U 20006H   23129.50702995  .00515875  00000-0  48465-2 0  9997","GP_ID":"231503625","OBJECT_NAME":"STARLINK-1141","NORAD_CAT_ID":"45051","COUNTRY_CODE":"US","RA_OF_ASC_NODE":"207.9426","REF_FRAME":"TEME","MEAN_MOTION":"15.64871276","MEAN_MOTION_DDOT":"0.0000000000000","APOAPSIS":"384.458","ARG_OF_PERICENTER":"348.5548","SITE":"AFETR","REV_AT_EPOCH":"18108","DECAY_DATE":null},{"OBJECT_ID":"2020-006J","FILE":"3904553","ECCENTRICITY":"0.00012530","EPHEMERIS_TYPE":"0","PERIAPSIS":"546.251","TLE_LINE2":"2 45052  53.0526 253.3550 0001253  77.9702 282.1427 15.06430854180444","CLASSIFICATION_TYPE":"U","INCLINATION":"53.0526","ELEMENT_SET_NO":"999","OBJECT_TYPE":"PAYLOAD","MEAN_MOTION_DOT":"0.00031396","SEMIMAJOR_AXIS":"6925.254","MEAN_ANOMALY":"282.1427","RCS_SIZE":"LARGE","CENTER_NAME":"EARTH","MEAN_ELEMENT_THEORY":"SGP4","BSTAR":"0.00211550000000","TIME_SYSTEM":"UTC","APOAPSIS":"547.987","MEAN_MOTION_DDOT":"0.0000000000000","ARG_OF_PERICENTER":"77.9702","REV_AT_EPOCH":"18044","DECAY_DATE":null,"SITE":"AFETR","NORAD_CAT_ID":"45052","RA_OF_ASC_NODE":"253.3550","COUNTRY_CODE":"US","MEAN_MOTION":"15.06430854","REF_FRAME":"TEME","TLE_LINE1":"1 45052U 20006J   23129.59183489  .00031396  00000-0  21155-2 0  9996","GP_ID":"231503875","OBJECT_NAME":"STARLINK-1148","LAUNCH_DATE":"2020-01-29","PERIOD":"95.590","EPOCH":"2023-05-09T14:12:14.534496"},{"TLE_LINE1":"1 45053U 20006K   23129.53858163  .00013424  00000-0  44498-3 0  9997","GP_ID":"231504613","OBJECT_NAME":"STARLINK-1155","LAUNCH_DATE":"2020-01-29","PERIOD":"94.020","EPOCH":"2023-05-09T12:55:33.452832","MEAN_MOTION_DDOT":"0.0000000000000","APOAPSIS":"473.711","ARG_OF_PERICENTER":"186.5436","REV_AT_EPOCH":"18098","DECAY_DATE":null,"SITE":"AFETR","NORAD_CAT_ID":"45053","COUNTRY_CODE":"US","RA_OF_ASC_NODE":"210.8899","MEAN_MOTION":"15.31592054","REF_FRAME":"TEME","MEAN_MOTION_DOT":"0.00013424","SEMIMAJOR_AXIS":"6849.199","MEAN_ANOMALY":"173.5513","RCS_SIZE":"LARGE","CENTER_NAME":"EARTH","MEAN_ELEMENT_THEORY":"SGP4","TIME_SYSTEM":"UTC","BSTAR":"0.00044498000000","FILE":"3904553","OBJECT_ID":"2020-006K","ECCENTRICITY":"0.00038650","EPHEMERIS_TYPE":"0","PERIAPSIS":"468.417","TLE_LINE2":"2 45053  52.9888 210.8899 0003865 186.5436 173.5513 15.31592054180987","INCLINATION":"52.9888","CLASSIFICATION_TYPE":"U","ELEMENT_SET_NO":"999","OBJECT_TYPE":"PAYLOAD"},{"APOAPSIS":"547.945","MEAN_MOTION_DDOT":"0.0000000000000","REV_AT_EPOCH":"18044","DECAY_DATE":null,"SITE":"AFETR","ARG_OF_PERICENTER":"80.3965","RA_OF_ASC_NODE":"253.3658","COUNTRY_CODE":"US","NORAD_CAT_ID":"45054","MEAN_MOTION":"15.06432860","REF_FRAME":"TEME","TLE_LINE1":"1 45054U 20006L   23129.58814739  .00030035  00000-0  20249-2 0  9998","GP_ID":"231503374","OBJECT_NAME":"STARLINK-1156","LAUNCH_DATE":"2020-01-29","PERIOD":"95.590","EPOCH":"2023-05-09T14:06:55.934496","ECCENTRICITY":"0.00012010","FILE":"3904553","OBJECT_ID":"2020-006L","EPHEMERIS_TYPE":"0","CLASSIFICATION_TYPE":"U","INCLINATION":"53.0533","ELEMENT_SET_NO":"999","PERIAPSIS":"546.281","TLE_LINE2":"2 45054  53.0533 253.3658 0001201  80.3965 279.7160 15.06432860180440","OBJECT_TYPE":"PAYLOAD","SEMIMAJOR_AXIS":"6925.248","MEAN_MOTION_DOT":"0.00030035","MEAN_ANOMALY":"279.7160","RCS_SIZE":"LARGE","MEAN_ELEMENT_THEORY":"SGP4","BSTAR":"0.00202490000000","TIME_SYSTEM":"UTC","CENTER_NAME":"EARTH"},{"OBJECT_NAME":"STARLINK-1159","TLE_LINE1":"1 45057U 20006P   23129.53655200  .00031957  00000-0  21537-2 0  9997","GP_ID":"231503126","PERIOD":"95.591","EPOCH":"2023-05-09T12:52:38.092800","LAUNCH_DATE":"2020-01-29","REV_AT_EPOCH":"18044","DECAY_DATE":null,"SITE":"AFETR","ARG_OF_PERICENTER":"78.5470","APOAPSIS":"548.069","MEAN_MOTION_DDOT":"0.0000000000000","MEAN_MOTION":"15.06415753","REF_FRAME":"TEME","COUNTRY_CODE":"US","RA_OF_ASC_NODE":"253.6015","NORAD_CAT_ID":"45057","MEAN_ANOMALY":"281.5665","SEMIMAJOR_AXIS":"6925.300","MEAN_MOTION_DOT":"0.00031957","MEAN_ELEMENT_THEORY":"SGP4","BSTAR":"0.00215370000000","TIME_SYSTEM":"UTC","CENTER_NAME":"EARTH","RCS_SIZE":"LARGE","EPHEMERIS_TYPE":"0","ECCENTRICITY":"0.00013050","FILE":"3904553","OBJECT_ID":"2020-006P","OBJECT_TYPE":"PAYLOAD","CLASSIFICATION_TYPE":"U","INCLINATION":"53.0530","ELEMENT_SET_NO":"999","PERIAPSIS":"546.262","TLE_LINE2":"2 45057  53.0530 253.6015 0001305  78.5470 281.5665 15.06415753180448"}];
